start=new Date('2023-03-11T00:00:00.000Z').valueOf();
sats=[{"OBJECT_NAME":"STARLINK-4457","BSTAR":"0.00024052000000","MEAN_MOTION_DOT":"0.00003033","LAUNCH_DATE":"2022-08-31","OBJECT_TYPE":"PAYLOAD","INCLINATION":"97.6529","SEMIMAJOR_AXIS":"6941.107","RA_OF_ASC_NODE":"312.4027","EPHEMERIS_TYPE":"0","APOAPSIS":"566.089","MEAN_ELEMENT_THEORY":"SGP4","DECAY_DATE":null,"MEAN_MOTION":"15.01272838","CLASSIFICATION_TYPE":"U","OBJECT_ID":"2022-105R","PERIAPSIS":"559.856","NORAD_CAT_ID":"53663","TLE_LINE1":"1 53663U 22105R   23069.92606028  .00003033  00000-0  24052-3 0  9991","ELEMENT_SET_NO":"999","FILE":"3856975","TLE_LINE2":"2 53663  97.6529 312.4027 0004490  93.5791 266.5947 15.01272838 28986","REF_FRAME":"TEME","PERIOD":"95.919","GP_ID":"227819800","EPOCH":"2023-03-10T22:13:31.608192","MEAN_ANOMALY":"266.5947","RCS_SIZE":"LARGE","CENTER_NAME":"EARTH","SITE":"AFWTR","MEAN_MOTION_DDOT":"0.0000000000000","ECCENTRICITY":"0.00044900","TIME_SYSTEM":"UTC","ARG_OF_PERICENTER":"93.5791","REV_AT_EPOCH":"2898","COUNTRY_CODE":"US"},{"COUNTRY_CODE":"US","REV_AT_EPOCH":"2898","ARG_OF_PERICENTER":"99.8013","TIME_SYSTEM":"UTC","ECCENTRICITY":"0.00015170","MEAN_MOTION_DDOT":"0.0000000000000","SITE":"AFWTR","CENTER_NAME":"EARTH","RCS_SIZE":"LARGE","MEAN_ANOMALY":"260.3383","EPOCH":"2023-03-10T22:02:50.504640","GP_ID":"227819551","PERIOD":"95.918","REF_FRAME":"TEME","TLE_LINE2":"2 53664  97.6536 312.3910 0001517  99.8013 260.3383 15.01277963 28988","TLE_LINE1":"1 53664U 22105S   23069.91864010  .00010745  00000-0  83946-3 0  9993","ELEMENT_SET_NO":"999","FILE":"3856975","NORAD_CAT_ID":"53664","PERIAPSIS":"561.904","OBJECT_ID":"2022-105S","CLASSIFICATION_TYPE":"U","MEAN_MOTION":"15.01277963","DECAY_DATE":null,"MEAN_ELEMENT_THEORY":"SGP4","APOAPSIS":"564.009","EPHEMERIS_TYPE":"0","SEMIMAJOR_AXIS":"6941.091","RA_OF_ASC_NODE":"312.3910","INCLINATION":"97.6536","OBJECT_TYPE":"PAYLOAD","LAUNCH_DATE":"2022-08-31","MEAN_MOTION_DOT":"0.00010745","BSTAR":"0.00083946000000","OBJECT_NAME":"STARLINK-4471"},{"BSTAR":"0.00030605000000","MEAN_MOTION_DOT":"0.00003876","LAUNCH_DATE":"2022-08-31","OBJECT_TYPE":"PAYLOAD","OBJECT_NAME":"STARLINK-4334","OBJECT_ID":"2022-105T","NORAD_CAT_ID":"53665","PERIAPSIS":"561.254","TLE_LINE2":"2 53665  97.6535 312.3976 0002466  94.1152 266.0354 15.01275086 28981","ELEMENT_SET_NO":"999","TLE_LINE1":"1 53665U 22105T   23069.92259335  .00003876  00000-0  30605-3 0  9994","FILE":"3856975","SEMIMAJOR_AXIS":"6941.100","RA_OF_ASC_NODE":"312.3976","INCLINATION":"97.6535","APOAPSIS":"564.677","EPHEMERIS_TYPE":"0","DECAY_DATE":null,"MEAN_MOTION":"15.01275086","MEAN_ELEMENT_THEORY":"SGP4","CLASSIFICATION_TYPE":"U","RCS_SIZE":"LARGE","PERIOD":"95.918","REF_FRAME":"TEME","GP_ID":"227818299","EPOCH":"2023-03-10T22:08:32.065440","MEAN_ANOMALY":"266.0354","ECCENTRICITY":"0.00024660","TIME_SYSTEM":"UTC","ARG_OF_PERICENTER":"94.1152","REV_AT_EPOCH":"2898","COUNTRY_CODE":"US","CENTER_NAME":"EARTH","SITE":"AFWTR","MEAN_MOTION_DDOT":"0.0000000000000"},{"CENTER_NAME":"EARTH","MEAN_MOTION_DDOT":"0.0000000000000","SITE":"AFWTR","TIME_SYSTEM":"UTC","ECCENTRICITY":"0.00013900","COUNTRY_CODE":"US","REV_AT_EPOCH":"2898","ARG_OF_PERICENTER":"105.3773","GP_ID":"227818549","PERIOD":"95.918","REF_FRAME":"TEME","MEAN_ANOMALY":"254.7605","EPOCH":"2023-03-10T21:57:51.905376","RCS_SIZE":"LARGE","APOAPSIS":"563.932","EPHEMERIS_TYPE":"0","SEMIMAJOR_AXIS":"6941.102","RA_OF_ASC_NODE":"312.3842","INCLINATION":"97.6544","CLASSIFICATION_TYPE":"U","MEAN_MOTION":"15.01274644","DECAY_DATE":null,"MEAN_ELEMENT_THEORY":"SGP4","OBJECT_ID":"2022-105U","TLE_LINE2":"2 53666  97.6544 312.3842 0001390 105.3773 254.7605 15.01274644 28985","TLE_LINE1":"1 53666U 22105U   23069.91518409  .00006054  00000-0  47538-3 0  9998","FILE":"3856975","ELEMENT_SET_NO":"999","NORAD_CAT_ID":"53666","PERIAPSIS":"562.002","OBJECT_NAME":"STARLINK-4449","MEAN_MOTION_DOT":"0.00006054","BSTAR":"0.00047538000000","OBJECT_TYPE":"PAYLOAD","LAUNCH_DATE":"2022-08-31"},{"ARG_OF_PERICENTER":"91.6600","REV_AT_EPOCH":"2898","COUNTRY_CODE":"US","ECCENTRICITY":"0.00031330","TIME_SYSTEM":"UTC","SITE":"AFWTR","MEAN_MOTION_DDOT":"0.0000000000000","CENTER_NAME":"EARTH","RCS_SIZE":"LARGE","EPOCH":"2023-03-10T22:08:11.097888","MEAN_ANOMALY":"268.4983","PERIOD":"95.919","REF_FRAME":"TEME","GP_ID":"227819301","NORAD_CAT_ID":"53667","PERIAPSIS":"560.804","TLE_LINE2":"2 53667  97.6531 312.3975 0003133  91.6600 268.4983 15.01270848 28985","ELEMENT_SET_NO":"999","TLE_LINE1":"1 53667U 22105V   23069.92235067  .00001672  00000-0  13466-3 0  9990","FILE":"3856975","OBJECT_ID":"2022-105V","MEAN_MOTION":"15.01270848","DECAY_DATE":null,"MEAN_ELEMENT_THEORY":"SGP4","CLASSIFICATION_TYPE":"U","SEMIMAJOR_AXIS":"6941.113","RA_OF_ASC_NODE":"312.3975","INCLINATION":"97.6531","APOAPSIS":"565.153","EPHEMERIS_TYPE":"0","LAUNCH_DATE":"2022-08-31","OBJECT_TYPE":"PAYLOAD","BSTAR":"0.00013466000000","MEAN_MOTION_DOT":"0.00001672","OBJECT_NAME":"STARLINK-4406"},{"OBJECT_NAME":"STARLINK-4458","MEAN_MOTION_DOT":"0.00017277","BSTAR":"0.00134570000000","OBJECT_TYPE":"PAYLOAD","LAUNCH_DATE":"2022-08-31","APOAPSIS":"563.884","EPHEMERIS_TYPE":"0","RA_OF_ASC_NODE":"312.3855","SEMIMAJOR_AXIS":"6941.088","INCLINATION":"97.6550","CLASSIFICATION_TYPE":"U","MEAN_MOTION":"15.01279246","DECAY_DATE":null,"MEAN_ELEMENT_THEORY":"SGP4","OBJECT_ID":"2022-105W","TLE_LINE2":"2 53668  97.6550 312.3855 0001342 102.2718 257.8656 15.01279246 28983","TLE_LINE1":"1 53668U 22105W   23069.91493824  .00017277  00000-0  13457-2 0  9994","FILE":"3856975","ELEMENT_SET_NO":"999","NORAD_CAT_ID":"53668","PERIAPSIS":"562.021","GP_ID":"227820051","PERIOD":"95.918","REF_FRAME":"TEME","MEAN_ANOMALY":"257.8656","EPOCH":"2023-03-10T21:57:30.663936","RCS_SIZE":"LARGE","CENTER_NAME":"EARTH","MEAN_MOTION_DDOT":"0.0000000000000","SITE":"AFWTR","TIME_SYSTEM":"UTC","ECCENTRICITY":"0.00013420","REV_AT_EPOCH":"2898","COUNTRY_CODE":"US","ARG_OF_PERICENTER":"102.2718"},{"MEAN_MOTION_DDOT":"0.0000000000000","SITE":"AFWTR","CENTER_NAME":"EARTH","COUNTRY_CODE":"US","REV_AT_EPOCH":"2898","ARG_OF_PERICENTER":"97.6604","TIME_SYSTEM":"UTC","ECCENTRICITY":"0.00011300","MEAN_ANOMALY":"262.4749","EPOCH":"2023-03-10T22:00:11.048256","GP_ID":"227818799","REF_FRAME":"TEME","PERIOD":"95.919","RCS_SIZE":"LARGE","CLASSIFICATION_TYPE":"U","MEAN_ELEMENT_THEORY":"SGP4","DECAY_DATE":null,"MEAN_MOTION":"15.01273108","EPHEMERIS_TYPE":"0","APOAPSIS":"563.756","INCLINATION":"97.6542","RA_OF_ASC_NODE":"312.3858","SEMIMAJOR_AXIS":"6941.106","TLE_LINE1":"1 53669U 22105X   23069.91679454  .00004802  00000-0  37806-3 0  9995","ELEMENT_SET_NO":"999","FILE":"3856975","TLE_LINE2":"2 53669  97.6542 312.3858 0001130  97.6604 262.4749 15.01273108 28980","PERIAPSIS":"562.187","NORAD_CAT_ID":"53669","OBJECT_ID":"2022-105X","OBJECT_NAME":"STARLINK-4464","OBJECT_TYPE":"PAYLOAD","LAUNCH_DATE":"2022-08-31","MEAN_MOTION_DOT":"0.00004802","BSTAR":"0.00037806000000"},{"RCS_SIZE":"LARGE","GP_ID":"227819049","PERIOD":"95.918","REF_FRAME":"TEME","MEAN_ANOMALY":"258.8961","EPOCH":"2023-03-10T21:52:11.015040","TIME_SYSTEM":"UTC","ECCENTRICITY":"0.00017680","REV_AT_EPOCH":"2898","COUNTRY_CODE":"US","ARG_OF_PERICENTER":"101.2462","CENTER_NAME":"EARTH","MEAN_MOTION_DDOT":"0.0000000000000","SITE":"AFWTR","MEAN_MOTION_DOT":"0.00004765","BSTAR":"0.00037514000000","OBJECT_TYPE":"PAYLOAD","LAUNCH_DATE":"2022-08-31","OBJECT_NAME":"STARLINK-4459","OBJECT_ID":"2022-105Y","TLE_LINE2":"2 53670  97.6547 312.3797 0001768 101.2462 258.8961 15.01276289 28988","TLE_LINE1":"1 53670U 22105Y   23069.91123860  .00004765  00000-0  37514-3 0  9996","FILE":"3856975","ELEMENT_SET_NO":"999","NORAD_CAT_ID":"53670","PERIAPSIS":"561.734","APOAPSIS":"564.189","EPHEMERIS_TYPE":"0","SEMIMAJOR_AXIS":"6941.097","RA_OF_ASC_NODE":"312.3797","INCLINATION":"97.6547","CLASSIFICATION_TYPE":"U","DECAY_DATE":null,"MEAN_MOTION":"15.01276289","MEAN_ELEMENT_THEORY":"SGP4"},{"EPOCH":"2023-03-10T21:54:50.774688","MEAN_ANOMALY":"263.1099","PERIOD":"95.918","REF_FRAME":"TEME","GP_ID":"227819801","RCS_SIZE":"LARGE","SITE":"AFWTR","MEAN_MOTION_DDOT":"0.0000000000000","CENTER_NAME":"EARTH","ARG_OF_PERICENTER":"97.0277","COUNTRY_CODE":"US","REV_AT_EPOCH":"2898","ECCENTRICITY":"0.00013350","TIME_SYSTEM":"UTC","OBJECT_NAME":"STARLINK-4440","LAUNCH_DATE":"2022-08-31","OBJECT_TYPE":"PAYLOAD","BSTAR":"0.00086964000000","MEAN_MOTION_DOT":"0.00011134","MEAN_MOTION":"15.01279220","DECAY_DATE":null,"MEAN_ELEMENT_THEORY":"SGP4","CLASSIFICATION_TYPE":"U","RA_OF_ASC_NODE":"312.3832","SEMIMAJOR_AXIS":"6941.088","INCLINATION":"97.6539","APOAPSIS":"563.879","EPHEMERIS_TYPE":"0","NORAD_CAT_ID":"53671","PERIAPSIS":"562.026","TLE_LINE2":"2 53671  97.6539 312.3832 0001335  97.0277 263.1099 15.01279220 28985","FILE":"3856975","TLE_LINE1":"1 53671U 22105Z   23069.91308767  .00011134  00000-0  86964-3 0  9999","ELEMENT_SET_NO":"999","OBJECT_ID":"2022-105Z"},{"SITE":"AFWTR","MEAN_MOTION_DDOT":"0.0000000000000","CENTER_NAME":"EARTH","ARG_OF_PERICENTER":"86.5372","REV_AT_EPOCH":"2898","COUNTRY_CODE":"US","ECCENTRICITY":"0.00013080","TIME_SYSTEM":"UTC","EPOCH":"2023-03-10T21:47:12.307776","MEAN_ANOMALY":"273.6002","PERIOD":"95.919","REF_FRAME":"TEME","GP_ID":"227819552","RCS_SIZE":"LARGE","DECAY_DATE":null,"MEAN_MOTION":"15.01264310","MEAN_ELEMENT_THEORY":"SGP4","CLASSIFICATION_TYPE":"U","SEMIMAJOR_AXIS":"6941.134","RA_OF_ASC_NODE":"312.3756","INCLINATION":"97.6537","APOAPSIS":"563.906","EPHEMERIS_TYPE":"0","NORAD_CAT_ID":"53672","PERIAPSIS":"562.091","TLE_LINE2":"2 53672  97.6537 312.3756 0001308  86.5372 273.6002 15.01264310 28982","TLE_LINE1":"1 53672U 22105AA  23069.90778134  .00007938  00000-0  62183-3 0  9992","FILE":"3856975","ELEMENT_SET_NO":"999","OBJECT_ID":"2022-105AA","OBJECT_NAME":"STARLINK-4428","LAUNCH_DATE":"2022-08-31","OBJECT_TYPE":"PAYLOAD","BSTAR":"0.00062183000000","MEAN_MOTION_DOT":"0.00007938"}];
